[{"OBJECT_NAME":"THURAYA-3","OBJECT_ID":"2008-001A","EPOCH":"2026-03-06T19:33:39.754944","MEAN_MOTION":1.00270026,"ECCENTRICITY":0.0002435,"INCLINATION":5.8163,"RA_OF_ASC_NODE":35.6064,"ARG_OF_PERICENTER":315.0985,"MEAN_ANOMALY":205.7123,"EPHEMERIS_TYPE":0,"CLASSIFICATION_TYPE":"U","NORAD_CAT_ID":32404,"ELEMENT_SET_NO":999,"REV_AT_EPOCH":6646,"BSTAR":0,"MEAN_MOTION_DOT":-3.03e-6,"MEAN_MOTION_DDOT":0},{"OBJECT_NAME":"THOR 5","OBJECT_ID":"2008-006A","EPOCH":"2026-03-06T19:05:19.970592","MEAN_MOTION":1.00271606,"ECCENTRICITY":0.0002686,"INCLINATION":0.0455,"RA_OF_ASC_NODE":253.7535,"ARG_OF_PERICENTER":105.1947,"MEAN_ANOMALY":91.1257,"EPHEMERIS_TYPE":0,"CLASSIFICATION_TYPE":"U","NORAD_CAT_ID":32487,"ELEMENT_SET_NO":999,"REV_AT_EPOCH":6628,"BSTAR":0,"MEAN_MOTION_DOT":-1.3e-7,"MEAN_MOTION_DDOT":0},{"OBJECT_NAME":"AMC-14","OBJECT_ID":"2008-011A","EPOCH":"2026-03-04T23:52:38.884800","MEAN_MOTION":1.00322327,"ECCENTRICITY":0.0047582,"INCLINATION":23.8835,"RA_OF_ASC_NODE":21.774,"ARG_OF_PERICENTER":355.431,"MEAN_ANOMALY":183.9649,"EPHEMERIS_TYPE":0,"CLASSIFICATION_TYPE":"U","NORAD_CAT_ID":32708,"ELEMENT_SET_NO":999,"REV_AT_EPOCH":6712,"BSTAR":0,"MEAN_MOTION_DOT":9.8e-7,"MEAN_MOTION_DDOT":0},{"OBJECT_NAME":"DIRECTV 11","OBJECT_ID":"2008-013A","EPOCH":"2026-03-06T13:29:14.697888","MEAN_MOTION":1.00272331,"ECCENTRICITY":2.809e-5,"INCLINATION":0.0177,"RA_OF_ASC_NODE":334.4791,"ARG_OF_PERICENTER":9.1117,"MEAN_ANOMALY":283.8006,"EPHEMERIS_TYPE":0,"CLASSIFICATION_TYPE":"U","NORAD_CAT_ID":32729,"ELEMENT_SET_NO":999,"REV_AT_EPOCH":4456,"BSTAR":0,"MEAN_MOTION_DOT":-1.3e-6,"MEAN_MOTION_DDOT":0},{"OBJECT_NAME":"ICO G1","OBJECT_ID":"2008-016A","EPOCH":"2026-03-06T11:48:17.544672","MEAN_MOTION":1.00272672,"ECCENTRICITY":0.00026187,"INCLINATION":5.5105,"RA_OF_ASC_NODE":36.3676,"ARG_OF_PERICENTER":292.5628,"MEAN_ANOMALY":279.4964,"EPHEMERIS_TYPE":0,"CLASSIFICATION_TYPE":"U","NORAD_CAT_ID":32763,"ELEMENT_SET_NO":999,"REV_AT_EPOCH":6551,"BSTAR":0,"MEAN_MOTION_DOT":-1.75e-6,"MEAN_MOTION_DDOT":0},{"OBJECT_NAME":"VINASAT-1","OBJECT_ID":"2008-018A","EPOCH":"2026-03-06T18:55:38.813952","MEAN_MOTION":1.00272742,"ECCENTRICITY":0.0002345,"INCLINATION":0.0474,"RA_OF_ASC_NODE":287.3111,"ARG_OF_PERICENTER":99.1736,"MEAN_ANOMALY":193.8611,"EPHEMERIS_TYPE":0,"CLASSIFICATION_TYPE":"U","NORAD_CAT_ID":32767,"ELEMENT_SET_NO":999,"REV_AT_EPOCH":6556,"BSTAR":0,"MEAN_MOTION_DOT":-3.32e-6,"MEAN_MOTION_DDOT":0},{"OBJECT_NAME":"STAR ONE C2","OBJECT_ID":"2008-018B","EPOCH":"2026-03-06T11:56:16.778688","MEAN_MOTION":1.00274104,"ECCENTRICITY":0.00028132,"INCLINATION":0.978,"RA_OF_ASC_NODE":83.4315,"ARG_OF_PERICENTER":265.6045,"MEAN_ANOMALY":289.2387,"EPHEMERIS_TYPE":0,"CLASSIFICATION_TYPE":"U","NORAD_CAT_ID":32768,"ELEMENT_SET_NO":999,"REV_AT_EPOCH":6562,"BSTAR":0,"MEAN_MOTION_DOT":-2.81e-6,"MEAN_MOTION_DDOT":0},{"OBJECT_NAME":"AMOS-3","OBJECT_ID":"2008-022A","EPOCH":"2026-03-06T19:04:20.067744","MEAN_MOTION":1.00273515,"ECCENTRICITY":0.000161,"INCLINATION":0.1909,"RA_OF_ASC_NODE":88.8605,"ARG_OF_PERICENTER":188.2894,"MEAN_ANOMALY":169.3366,"EPHEMERIS_TYPE":0,"CLASSIFICATION_TYPE":"U","NORAD_CAT_ID":32794,"ELEMENT_SET_NO":999,"REV_AT_EPOCH":8130,"BSTAR":0,"MEAN_MOTION_DOT":-3.8e-7,"MEAN_MOTION_DDOT":0},{"OBJECT_NAME":"GALAXY 18 (G-18)","OBJECT_ID":"2008-024A","EPOCH":"2026-03-06T13:22:22.855872","MEAN_MOTION":1.00271782,"ECCENTRICITY":0.00032592,"INCLINATION":0.0228,"RA_OF_ASC_NODE":154.5117,"ARG_OF_PERICENTER":218.5909,"MEAN_ANOMALY":228.7869,"EPHEMERIS_TYPE":0,"CLASSIFICATION_TYPE":"U","NORAD_CAT_ID":32951,"ELEMENT_SET_NO":999,"REV_AT_EPOCH":4482,"BSTAR":0,"MEAN_MOTION_DOT":0,"MEAN_MOTION_DDOT":0},{"OBJECT_NAME":"ZHONGXING-9","OBJECT_ID":"2008-028A","EPOCH":"2026-03-06T20:53:38.702976","MEAN_MOTION":1.00272058,"ECCENTRICITY":0.0008809,"INCLINATION":0.5073,"RA_OF_ASC_NODE":87.0151,"ARG_OF_PERICENTER":241.7837,"MEAN_ANOMALY":241.579,"EPHEMERIS_TYPE":0,"CLASSIFICATION_TYPE":"U","NORAD_CAT_ID":33051,"ELEMENT_SET_NO":999,"REV_AT_EPOCH":6501,"BSTAR":0,"MEAN_MOTION_DOT":-2.52e-6,"MEAN_MOTION_DDOT":0},{"OBJECT_NAME":"SKYNET 5C","OBJECT_ID":"2008-030A","EPOCH":"2026-03-06T19:00:27.938592","MEAN_MOTION":1.00272903,"ECCENTRICITY":0.0005004,"INCLINATION":3.5269,"RA_OF_ASC_NODE":78.2611,"ARG_OF_PERICENTER":282.8257,"MEAN_ANOMALY":70.711,"EPHEMERIS_TYPE":0,"CLASSIFICATION_TYPE":"U","NORAD_CAT_ID":33055,"ELEMENT_SET_NO":999,"REV_AT_EPOCH":6492,"BSTAR":0,"MEAN_MOTION_DOT":-1.42e-6,"MEAN_MOTION_DDOT":0},{"OBJECT_NAME":"TURKSAT 3A","OBJECT_ID":"2008-030B","EPOCH":"2026-03-06T12:26:43.859616","MEAN_MOTION":1.00275896,"ECCENTRICITY":0.0004745,"INCLINATION":0.0232,"RA_OF_ASC_NODE":90.2183,"ARG_OF_PERICENTER":282.6689,"MEAN_ANOMALY":20.0402,"EPHEMERIS_TYPE":0,"CLASSIFICATION_TYPE":"U","NORAD_CAT_ID":33056,"ELEMENT_SET_NO":999,"REV_AT_EPOCH":5132,"BSTAR":0,"MEAN_MOTION_DOT":1.42e-6,"MEAN_MOTION_DDOT":0},{"OBJECT_NAME":"INTELSAT 25 (IS-25)","OBJECT_ID":"2008-034A","EPOCH":"2026-03-06T10:23:03.219360","MEAN_MOTION":1.00272517,"ECCENTRICITY":0.0003713,"INCLINATION":2.4425,"RA_OF_ASC_NODE":81.5933,"ARG_OF_PERICENTER":237.9392,"MEAN_ANOMALY":328.8879,"EPHEMERIS_TYPE":0,"CLASSIFICATION_TYPE":"U","NORAD_CAT_ID":33153,"ELEMENT_SET_NO":999,"REV_AT_EPOCH":6466,"BSTAR":0,"MEAN_MOTION_DOT":-2.28e-6,"MEAN_MOTION_DDOT":0},{"OBJECT_NAME":"ECHOSTAR 11","OBJECT_ID":"2008-035A","EPOCH":"2026-03-06T11:43:25.510944","MEAN_MOTION":1.00272579,"ECCENTRICITY":0.00025271,"INCLINATION":0.7392,"RA_OF_ASC_NODE":85.4641,"ARG_OF_PERICENTER":267.3704,"MEAN_ANOMALY":237.2229,"EPHEMERIS_TYPE":0,"CLASSIFICATION_TYPE":"U","NORAD_CAT_ID":33207,"ELEMENT_SET_NO":999,"REV_AT_EPOCH":5018,"BSTAR":0,"MEAN_MOTION_DOT":-6.1e-7,"MEAN_MOTION_DDOT":0},{"OBJECT_NAME":"SUPERBIRD-C2","OBJECT_ID":"2008-038A","EPOCH":"2026-03-06T19:44:23.726112","MEAN_MOTION":1.00272657,"ECCENTRICITY":0.0001317,"INCLINATION":2.0969,"RA_OF_ASC_NODE":82.5832,"ARG_OF_PERICENTER":4.5912,"MEAN_ANOMALY":149.482,"EPHEMERIS_TYPE":0,"CLASSIFICATION_TYPE":"U","NORAD_CAT_ID":33274,"ELEMENT_SET_NO":999,"REV_AT_EPOCH":10470,"BSTAR":0,"MEAN_MOTION_DOT":-3.09e-6,"MEAN_MOTION_DDOT":0},{"OBJECT_NAME":"INMARSAT 4-F3","OBJECT_ID":"2008-039A","EPOCH":"2026-03-06T10:04:05.036736","MEAN_MOTION":1.0027219,"ECCENTRICITY":0.00027379,"INCLINATION":4.206,"RA_OF_ASC_NODE":31.2067,"ARG_OF_PERICENTER":322.3272,"MEAN_ANOMALY":223.6342,"EPHEMERIS_TYPE":0,"CLASSIFICATION_TYPE":"U","NORAD_CAT_ID":33278,"ELEMENT_SET_NO":999,"REV_AT_EPOCH":4551,"BSTAR":0,"MEAN_MOTION_DOT":-1.43e-6,"MEAN_MOTION_DDOT":0},{"OBJECT_NAME":"NIMIQ 4","OBJECT_ID":"2008-044A","EPOCH":"2026-03-06T13:34:06.730752","MEAN_MOTION":1.00270843,"ECCENTRICITY":0.00021329,"INCLINATION":0.0043,"RA_OF_ASC_NODE":181.216,"ARG_OF_PERICENTER":182.6996,"MEAN_ANOMALY":281.872,"EPHEMERIS_TYPE":0,"CLASSIFICATION_TYPE":"U","NORAD_CAT_ID":33373,"ELEMENT_SET_NO":999,"REV_AT_EPOCH":6395,"BSTAR":0,"MEAN_MOTION_DOT":-2.24e-6,"MEAN_MOTION_DDOT":0}]
