THURAYA-3               
1 32404U 08001A   26065.81504346 -.00000303  00000+0  00000+0 0  9997
2 32404   5.8163  35.6064 0002435 315.0985 205.7123  1.00270026 66467
THOR 5                  
1 32487U 08006A   26065.79537003 -.00000013  00000+0  00000+0 0  9994
2 32487   0.0455 253.7535 0002686 105.1947  91.1257  1.00271606 66289
AMC-14                  
1 32708U 08011A   26063.99489450  .00000098  00000+0  00000+0 0  9990
2 32708  23.8835  21.7740 0047582 355.4310 183.9649  1.00322327 67125
DIRECTV 11              
1 32729U 08013A   26065.56197567 -.00000130  00000+0  00000+0 0  9993
2 32729   0.0177 334.4791 0000280   9.1117 283.8006  1.00272331 44565
ICO G1                  
1 32763U 08016A   26065.49186973 -.00000175  00000+0  00000+0 0  9994
2 32763   5.5105  36.3676 0002618 292.5628 279.4964  1.00272672 65516
VINASAT-1               
1 32767U 08018A   26065.78864368 -.00000332  00000+0  00000+0 0  9998
2 32767   0.0474 287.3111 0002345  99.1736 193.8611  1.00272742 65560
STAR ONE C2             
1 32768U 08018B   26065.49741642 -.00000281  00000+0  00000+0 0  9999
2 32768   0.9780  83.4315 0002813 265.6045 289.2387  1.00274104 65625
AMOS-3                  
1 32794U 08022A   26065.79467671 -.00000038  00000+0  00000+0 0  9993
2 32794   0.1909  88.8605 0001610 188.2894 169.3366  1.00273515 81309
GALAXY 18 (G-18)        
1 32951U 08024A   26065.55720898  .00000000  00000+0  00000+0 0  9995
2 32951   0.0228 154.5117 0003259 218.5909 228.7869  1.00271782 44829
ZHONGXING-9             
1 33051U 08028A   26065.87058684 -.00000252  00000+0  00000+0 0  9993
2 33051   0.5073  87.0151 0008809 241.7837 241.5790  1.00272058 65013
SKYNET 5C               
1 33055U 08030A   26065.79199003 -.00000142  00000+0  00000+0 0  9990
2 33055   3.5269  78.2611 0005004 282.8257  70.7110  1.00272903 64922
TURKSAT 3A              
1 33056U 08030B   26065.51856319  .00000142  00000+0  00000+0 0  9990
2 33056   0.0232  90.2183 0004745 282.6689  20.0402  1.00275896 51327
INTELSAT 25 (IS-25)     
1 33153U 08034A   26065.43267615 -.00000228  00000+0  00000+0 0  9994
2 33153   2.4425  81.5933 0003713 237.9392 328.8879  1.00272517 64664
ECHOSTAR 11             
1 33207U 08035A   26065.48848971 -.00000061  00000+0  00000+0 0  9995
2 33207   0.7392  85.4641 0002527 267.3704 237.2229  1.00272579 50185
SUPERBIRD-C2            
1 33274U 08038A   26065.82249683 -.00000309  00000+0  00000+0 0  9990
2 33274   2.0969  82.5832 0001317   4.5912 149.4820  1.00272657104708
INMARSAT 4-F3           
1 33278U 08039A   26065.41950274 -.00000143  00000+0  00000+0 0  9991
2 33278   4.2060  31.2067 0002737 322.3272 223.6342  1.00272190 45515
NIMIQ 4                 
1 33373U 08044A   26065.56535568 -.00000224  00000+0  00000+0 0  9994
2 33373   0.0043 181.2160 0002132 182.6996 281.8720  1.00270843 63952
